{
  "type": "FeatureCollection",
  "features": [
    {
      "type": "Feature",
      "id": "node/5893480259",
      "properties": {
        "amenity": "boat_rental",
        "contact:facebook": "https://nb-no.facebook.com/Sandvikenkystlag",
        "name": "Bergen Båtdelering",
        "note": "Bestilling av båtene gjøres via Facebookgruppen – Bergen Båtdelering (lukket gruppe for de som har betalt kontingent/BB faktura). Kano bestilles ved å sende sms til Gerhard på 90870382.",
        "operator": "Sandviken kystlag",
        "website": "https://www.sandvikenkystlag.com/bergen-b%C3%A5tdelering.php",
        "id": "node/5893480259",
        "fivh:tags": ""
      },
      "geometry": {
        "type": "Point",
        "coordinates": [
          5.3218983,
          60.4080995
        ]
      }
    },
    {
      "type": "Feature",
      "id": "node/6054933076",
      "properties": {
        "amenity": "bicycle_rental",
        "bicycle": "mtb",
        "bicycle_rental": "dropoff_point",
        "building": "yes",
        "name": "Fløyen Aktiv",
        "opening_hours": "May-Sep PH,Mo-Su 10:00-15:00",
        "operator": "Fløibanen AS",
        "phone": "+47 47 68 15 05",
        "id": "node/6054933076",
        "fivh:tags": ""
      },
      "geometry": {
        "type": "Point",
        "coordinates": [
          5.3443121,
          60.3948652
        ]
      }
    },
    {
      "type": "Feature",
      "id": "node/12435651069",
      "properties": {
        "amenity": "bicycle_rental",
        "name": "Bergen Bike Rent",
        "phone": "+ 47 410 68 000",
        "website": "https://www.norwayactive.no/",
        "id": "node/12435651069",
        "fivh:tags": ""
      },
      "geometry": {
        "type": "Point",
        "coordinates": [
          5.3168632,
          60.4017274
        ]
      }
    },
    {
      "type": "Feature",
      "id": "node/12435651070",
      "properties": {
        "name": "Fløyen Aktiv",
        "shop": "rental",
        "id": "node/12435651070",
        "fivh:tags": ""
      },
      "geometry": {
        "type": "Point",
        "coordinates": [
          5.344336,
          60.3948596
        ]
      }
    },
    {
      "type": "Feature",
      "id": "node/12622866775",
      "properties": {
        "addr:city": "Bergen",
        "addr:housenumber": "6",
        "addr:postcode": "5008",
        "addr:street": "Agnes Mowinckels gate",
        "name": "Skattkammeret Bergen",
        "phone": "469 81 234",
        "shop": "rental",
        "id": "node/12622866775",
        "fivh:tags": ""
      },
      "geometry": {
        "type": "Point",
        "coordinates": [
          5.3325181,
          60.3862139
        ]
      }
    }
  ]
}