<?xml version="1.0" encoding="UTF-8"?>
<osm version="0.6" generator="Overpass API 0.7.62.5 1bd436f1">
<note>The data included in this document is from www.openstreetmap.org. The data is made available under ODbL.</note>
<meta osm_base="2025-02-17T04:09:44Z" areas="2024-12-31T00:49:33Z"/>

  <node id="360298302" lat="60.3855342" lon="5.3182887">
    <tag k="check_date:opening_hours" v="2023-12-06"/>
    <tag k="description" v="brukthandel"/>
    <tag k="name" v="Miljømarked"/>
    <tag k="opening_hours" v="Mo-Fr 10:00-16:30; Sa 11:00-15:00; PH,Su off"/>
    <tag k="shop" v="second_hand"/>
  </node>
  <node id="3684649521" lat="60.3625880" lon="5.4547870">
    <tag k="email" v="bergen@nlmgjenbruk.no"/>
    <tag k="name" v="Nlm Gjenbruk Bergen"/>
    <tag k="opening_hours" v="We-Fr 12:00-17:00; Sa 11:00-15:00"/>
    <tag k="phone" v="+4740443470"/>
    <tag k="shop" v="second_hand"/>
  </node>
  <node id="3946005930" lat="60.3926603" lon="5.3216649">
    <tag k="name" v="Vitti"/>
    <tag k="opening_hours" v="Tu-Th 12:00-19:00; Fr-Sa 12:00-18:00"/>
    <tag k="second_hand" v="yes"/>
    <tag k="shop" v="clothes"/>
  </node>
  <node id="3946005947" lat="60.3928560" lon="5.3215392">
    <tag k="clothes" v="women;men;workwear;suits;denim"/>
    <tag k="name" v="Episode"/>
    <tag k="opening_hours" v="Mo-Sa 11:00-19:00"/>
    <tag k="second_hand" v="yes"/>
    <tag k="shop" v="clothes"/>
  </node>
  <node id="3946005953" lat="60.3872358" lon="5.3288111">
    <tag k="description" v="Kjøp og salg av hvitevarer og brunevarer"/>
    <tag k="name" v="Nygårdsgaten Brukthandel"/>
    <tag k="opening_hours" v="Mo-Fr 10:00-19:30; Sa 10:00-17:30; Su off"/>
    <tag k="shop" v="second_hand"/>
  </node>
  <node id="3964625325" lat="60.3991740" lon="5.3224270">
    <tag k="name" v="NMS Gjenbruk Bergen"/>
    <tag k="opening_hours" v="Mo-We 10:30-16:30; Th 10:30-17:30; Fr 10:30-16:30; Sa 11:00-15:00"/>
    <tag k="operator" v="Det Norske Misjonsselskap"/>
    <tag k="second_hand" v="yes"/>
    <tag k="shop" v="charity"/>
    <tag k="website" v="https://nms.no/butikk/bergen/"/>
  </node>
  <node id="3988480605" lat="60.4008828" lon="5.3226783">
    <tag k="check_date:opening_hours" v="2023-10-22"/>
    <tag k="name" v="Rimelige Hvitevarer"/>
    <tag k="opening_hours" v="Mo-Fr 10:00-18:00; Sa 10:00-17:00"/>
    <tag k="second_hand" v="yes"/>
    <tag k="shop" v="appliance"/>
  </node>
  <node id="3988501473" lat="60.3969591" lon="5.3263675">
    <tag k="opening_hours" v="Mo-We 10:30-17:30; Th 10:30-19:00; Fr 10:30-17:00; Sa 10:30-15:00"/>
    <tag k="second_hand" v="yes"/>
    <tag k="shop" v="comics"/>
  </node>
  <node id="4086570111" lat="60.3613502" lon="5.3509386">
    <tag k="opening_hours" v="Th 15:30-17:00; Tu 15:30-17:00"/>
    <tag k="second_hand" v="yes"/>
    <tag k="shop" v="books"/>
  </node>
  <node id="4099728387" lat="60.3938350" lon="5.3280730">
    <tag k="contact:facebook" v="https://www.facebook.com/secondlovelove"/>
    <tag k="email" v="lisa@secondlove.no"/>
    <tag k="name" v="Second Love"/>
    <tag k="opening_hours" v="Mo-We 11:00-16:00; Th-Fr 11:00-18:00; Sa 11:00-17:00"/>
    <tag k="phone" v="+47 413 57 743"/>
    <tag k="second_hand" v="yes"/>
    <tag k="shop" v="clothes"/>
    <tag k="website" v="http://www.secondlove.no/"/>
  </node>
  <node id="4161392159" lat="60.3886680" lon="5.3304520">
    <tag k="brand" v="Fretex"/>
    <tag k="check_date:opening_hours" v="2025-01-29"/>
    <tag k="contact:facebook" v="https://www.facebook.com/profile.php?id=100049104231501"/>
    <tag k="name" v="Fretex Lars Hilles gate"/>
    <tag k="opening_hours" v="Mo-Fr 10:00-18:00; Sa 11:00-17:00"/>
    <tag k="phone" v="+47 55321486"/>
    <tag k="ref:fretex" v="132"/>
    <tag k="second_hand" v="yes"/>
    <tag k="shop" v="charity"/>
    <tag k="toilets:wheelchair" v="no"/>
    <tag k="website" v="https://www.fretex.no/handle/finn-butikk/fretex-lars-hillesgate/"/>
    <tag k="wheelchair" v="yes"/>
  </node>
  <node id="4161486173" lat="60.3751804" lon="5.3392101">
    <tag k="name" v="Mamilla Gjenbruk Bergen"/>
    <tag k="opening_hours" v="Mo-Fr 11:00-17:00; Sa 11:00-15:00"/>
    <tag k="operator" v="Den Norske Israelsmisjon"/>
    <tag k="second_hand" v="only"/>
    <tag k="shop" v="second_hand"/>
    <tag k="website" v="https://www.israelsmisjonen.no/norge/misjonsbutikken/mamilla?fbclid=IwAR2kFPcl8jgaKBqir9MTfFofAlsbbpMhuOx2J2WcLKG_gotKp_7s49aJIm4"/>
  </node>
  <node id="4161552886" lat="60.3721514" lon="5.3464060">
    <tag k="branch" v="Klesskapet i bergen"/>
    <tag k="clothes" v="women"/>
    <tag k="name" v="Det Gule Hus"/>
    <tag k="second_hand" v="only"/>
    <tag k="shop" v="clothes"/>
    <tag k="website" v="https://detgulehus.no/locations/bergen-klesskapet"/>
  </node>
  <node id="4162069858" lat="60.3944318" lon="5.3114323">
    <tag k="name" v="Vintage Sisters"/>
    <tag k="opening_hours" v="Fr 12:00-17:00; Sa 12:00-16:00; &quot;by appointment&quot;"/>
    <tag k="phone" v="+47 9719 7274"/>
    <tag k="second_hand" v="yes"/>
    <tag k="shop" v="clothes"/>
  </node>
  <node id="4171729440" lat="60.3902272" lon="5.3215394">
    <tag k="name" v="Bokglede"/>
    <tag k="opening_hours" v="Sa 12:00-16:30"/>
    <tag k="second_hand" v="yes"/>
    <tag k="shop" v="books"/>
  </node>
  <node id="5139480162" lat="60.3583782" lon="5.3674408">
    <tag k="facebook" v="https://www.facebook.com/velbevartbruktbutikk/"/>
    <tag k="name" v="Vel Bevart Bruktbutikk"/>
    <tag k="opening_hours" v="We-Fr 11:00-17:00; Sa 11:00-15:00"/>
    <tag k="phone" v="+47 471 76 460"/>
    <tag k="second_hand" v="only"/>
    <tag k="shop" v="charity"/>
  </node>
  <node id="6206106684" lat="60.4702124" lon="5.3374810">
    <tag k="brand" v="Fretex"/>
    <tag k="name" v="Fretex Åsane"/>
    <tag k="phone" v="+47 55390720"/>
    <tag k="ref:fretex" v="145"/>
    <tag k="second_hand" v="yes"/>
    <tag k="shop" v="charity"/>
  </node>
  <node id="11012179459" lat="60.3794122" lon="5.3467569">
    <tag k="contact:facebook" v="https://bir.no/aktuelt/birs-ombruksmarked-hver-tirsdag/"/>
    <tag k="level" v="0"/>
    <tag k="name" v="Nyverdi – BIRs ombruksmarked"/>
    <tag k="opening_hours" v="Tu 14-19"/>
    <tag k="operator" v="BIR AS"/>
    <tag k="payment:app" v="yes"/>
    <tag k="payment:vipps" v="yes"/>
    <tag k="payment:visa" v="yes"/>
    <tag k="second_hand" v="yes"/>
    <tag k="shop" v="second_hand"/>
  </node>
  <node id="11922337264" lat="60.3946372" lon="5.3293386">
    <tag k="contact:instagram" v="https://www.instagram.com/oybergen/"/>
    <tag k="name" v="ÔY"/>
    <tag k="opening_hours" v="Mo-Sa 12:00-18:00"/>
    <tag k="second_hand" v="yes"/>
    <tag k="shop" v="clothes"/>
  </node>
  <node id="12087187846" lat="60.3791975" lon="5.3443387">
    <tag k="description" v="second hand goods free of charge to take - &quot;freeshop&quot; - furniture, books, decorations and more"/>
    <tag k="name" v="Brukthallen Bergen"/>
    <tag k="opening_hours" v="Mo-Fr 15-18"/>
    <tag k="operator" v="BIR"/>
    <tag k="second_hand" v="yes"/>
    <tag k="shop" v="second_hand"/>
  </node>
  <node id="12184425306" lat="60.4309840" lon="5.4642450">
    <tag k="description" v="Bergenbruktpc.no er en del av A2G Bjørkhaug, en arbeidsmarkedsbedrift som holder til på Storaneset 12, 5260 Indre Arna. Vi er en arbeidsmakedsbedrift som tilbyr Arbeidsforberedende Trening (AFT), Varig Tilrettelagt Arbeid (VTA), og praksisplasser. Når du"/>
    <tag k="email" v="kontakt@bergenbruktpc.no"/>
    <tag k="name" v="Bergen brukt pc"/>
    <tag k="opening_hours" v="Mo-Fr 09:00-15:00"/>
    <tag k="operator" v="A2G Bjørghaug"/>
    <tag k="phone" v="479 76 151"/>
    <tag k="second_hand" v="yes"/>
    <tag k="shop" v="computer"/>
    <tag k="website" v="https://bergenbruktpc.no/"/>
  </node>
  <node id="12212402786" lat="60.2952347" lon="5.3278476">
    <tag k="branch" v="Fana"/>
    <tag k="name" v="Det Gule Hus"/>
    <tag k="second_hand" v="only"/>
    <tag k="shop" v="clothes"/>
    <tag k="website" v="https://detgulehus.no/locations/fana"/>
  </node>
  <node id="12212402790" lat="60.3508917" lon="5.2774916">
    <tag k="branch" v="Fyllingsdalen"/>
    <tag k="fixme" v="Vet ikke nøyaktig lokasjon"/>
    <tag k="name" v="Det Gule Hus"/>
    <tag k="second_hand" v="only"/>
    <tag k="shop" v="clothes"/>
    <tag k="website" v="https://detgulehus.no/locations/fyllingsdalen"/>
  </node>
  <node id="12236198730" lat="60.3847451" lon="5.3319660">
    <tag k="clothes" v="women;men"/>
    <tag k="payment:cards" v="yes"/>
    <tag k="second_hand" v="only"/>
    <tag k="shop" v="clothes"/>
    <tag k="website" v="https://www.chambr.no/"/>
  </node>

</osm>
